{
  "type": "FeatureCollection",
  "features": [
    {
      "type": "Feature",
      "properties": {
        "norad_id": 43783,
        "name": "KAZSTSAT",
        "group": "resource",
        "lat": -48.386522874407824,
        "lon": 44.49543080482401,
        "alt_km": 572.590456984135,
        "timestamp": "2025-12-27T11:23:19.535129+00:00",
        "meta_object_name": "KAZSTSAT",
        "meta_object_id": "2018-099AB",
        "meta_epoch": "2025-12-27T01:59:47.584896",
        "meta_mean_motion": 14.99376687,
        "meta_eccentricity": 0.0006458,
        "meta_inclination": 97.4508,
        "meta_ra_of_asc_node": 35.6488,
        "meta_arg_of_pericenter": 266.4157,
        "meta_mean_anomaly": 93.6328,
        "meta_ephemeris_type": 0,
        "meta_classification_type": "U",
        "meta_norad_cat_id": 43783,
        "meta_element_set_no": 999,
        "meta_rev_at_epoch": 38551,
        "meta_bstar": 8.5265e-05,
        "meta_mean_motion_dot": 9.87e-06,
        "meta_mean_motion_ddot": 0,
        "tle_line1": "1 43783U 18099AB  25361.08318964  .00000987  00000+0  85265-4 0  9991",
        "tle_line2": "2 43783  97.4508  35.6488 0006458 266.4157  93.6328 14.99376687385511"
      },
      "geometry": {
        "type": "Point",
        "coordinates": [
          44.49543080482401,
          -48.386522874407824
        ]
      }
    },
    {
      "type": "Feature",
      "properties": {
        "norad_id": 43831,
        "name": "SAUDISAT 5A",
        "group": "resource",
        "lat": -38.889397504264295,
        "lon": 67.3431124630724,
        "alt_km": 492.1275387628002,
        "timestamp": "2025-12-27T11:23:19.535139+00:00",
        "meta_object_name": "SAUDISAT 5A",
        "meta_object_id": "2018-102A",
        "meta_epoch": "2025-12-27T05:15:52.739424",
        "meta_mean_motion": 15.25837266,
        "meta_eccentricity": 0.0010895,
        "meta_inclination": 97.3331,
        "meta_ra_of_asc_node": 61.1306,
        "meta_arg_of_pericenter": 30.8837,
        "meta_mean_anomaly": 329.304,
        "meta_ephemeris_type": 0,
        "meta_classification_type": "U",
        "meta_norad_cat_id": 43831,
        "meta_element_set_no": 999,
        "meta_rev_at_epoch": 38943,
        "meta_bstar": 0.00028503,
        "meta_mean_motion_dot": 7.234e-05,
        "meta_mean_motion_ddot": 0,
        "tle_line1": "1 43831U 18102A   25361.21936041  .00007234  00000+0  28503-3 0  9990",
        "tle_line2": "2 43831  97.3331  61.1306 0010895  30.8837 329.3040 15.25837266389439"
      },
      "geometry": {
        "type": "Point",
        "coordinates": [
          67.3431124630724,
          -38.889397504264295
        ]
      }
    },
    {
      "type": "Feature",
      "properties": {
        "norad_id": 43833,
        "name": "SAUDISAT 5B",
        "group": "resource",
        "lat": 31.281275341261328,
        "lon": 59.65254569854104,
        "alt_km": 477.57429320673236,
        "timestamp": "2025-12-27T11:23:19.535149+00:00",
        "meta_object_name": "SAUDISAT 5B",
        "meta_object_id": "2018-102C",
        "meta_epoch": "2025-12-27T04:57:24.973920",
        "meta_mean_motion": 15.26181694,
        "meta_eccentricity": 0.0011659,
        "meta_inclination": 97.3425,
        "meta_ra_of_asc_node": 63.8826,
        "meta_arg_of_pericenter": 32.8683,
        "meta_mean_anomaly": 327.3278,
        "meta_ephemeris_type": 0,
        "meta_classification_type": "U",
        "meta_norad_cat_id": 43833,
        "meta_element_set_no": 999,
        "meta_rev_at_epoch": 38954,
        "meta_bstar": 0.00028568,
        "meta_mean_motion_dot": 7.328e-05,
        "meta_mean_motion_ddot": 0,
        "tle_line1": "1 43833U 18102C   25361.20653905  .00007328  00000+0  28568-3 0  9991",
        "tle_line2": "2 43833  97.3425  63.8826 0011659  32.8683 327.3278 15.26181694389542"
      },
      "geometry": {
        "type": "Point",
        "coordinates": [
          59.65254569854104,
          31.281275341261328
        ]
      }
    },
    {
      "type": "Feature",
      "properties": {
        "norad_id": 44622,
        "name": "GAOFEN-10R",
        "group": "resource",
        "lat": -23.290164424218062,
        "lon": 125.55644059326647,
        "alt_km": 630.1569389615861,
        "timestamp": "2025-12-27T11:23:19.535159+00:00",
        "meta_object_name": "GAOFEN-10R",
        "meta_object_id": "2019-066A",
        "meta_epoch": "2025-12-27T03:59:45.798720",
        "meta_mean_motion": 14.82842335,
        "meta_eccentricity": 0.0006804,
        "meta_inclination": 98.0296,
        "meta_ra_of_asc_node": 308.7309,
        "meta_arg_of_pericenter": 359.1171,
        "meta_mean_anomaly": 1.0028,
        "meta_ephemeris_type": 0,
        "meta_classification_type": "U",
        "meta_norad_cat_id": 44622,
        "meta_element_set_no": 999,
        "meta_rev_at_epoch": 33688,
        "meta_bstar": 0.00025461,
        "meta_mean_motion_dot": 2.007e-05,
        "meta_mean_motion_ddot": 0,
        "tle_line1": "1 44622U 19066A   25361.16650230  .00002007  00000+0  25461-3 0  9999",
        "tle_line2": "2 44622  98.0296 308.7309 0006804 359.1171   1.0028 14.82842335336888"
      },
      "geometry": {
        "type": "Point",
        "coordinates": [
          125.55644059326647,
          -23.290164424218062
        ]
      }
    },
    {
      "type": "Feature",
      "properties": {
        "norad_id": 44804,
        "name": "CARTOSAT-3",
        "group": "resource",
        "lat": 45.333556468298426,
        "lon": -111.51724126790343,
        "alt_km": 505.38056237360524,
        "timestamp": "2025-12-27T11:23:19.535170+00:00",
        "meta_object_name": "CARTOSAT-3",
        "meta_object_id": "2019-081A",
        "meta_epoch": "2025-12-27T04:28:43.613760",
        "meta_mean_motion": 15.19275807,
        "meta_eccentricity": 0.0013367,
        "meta_inclination": 97.4558,
        "meta_ra_of_asc_node": 60.5849,
        "meta_arg_of_pericenter": 37.4751,
        "meta_mean_anomaly": 322.7413,
        "meta_ephemeris_type": 0,
        "meta_classification_type": "U",
        "meta_norad_cat_id": 44804,
        "meta_element_set_no": 999,
        "meta_rev_at_epoch": 33735,
        "meta_bstar": 0.00023663,
        "meta_mean_motion_dot": 4.933e-05,
        "meta_mean_motion_ddot": 0,
        "tle_line1": "1 44804U 19081A   25361.18661590  .00004933  00000+0  23663-3 0  9993",
        "tle_line2": "2 44804  97.4558  60.5849 0013367  37.4751 322.7413 15.19275807337357"
      },
      "geometry": {
        "type": "Point",
        "coordinates": [
          -111.51724126790343,
          45.333556468298426
        ]
      }
    },
    {
      "type": "Feature",
      "properties": {
        "norad_id": 44819,
        "name": "GAOFEN-12 01",
        "group": "resource",
        "lat": -3.832233112447239,
        "lon": 7.89567628743009,
        "alt_km": 632.3602030513712,
        "timestamp": "2025-12-27T11:23:19.535180+00:00",
        "meta_object_name": "GAOFEN-12 01",
        "meta_object_id": "2019-082A",
        "meta_epoch": "2025-12-27T04:55:07.310208",
        "meta_mean_motion": 14.80674342,
        "meta_eccentricity": 0.0002369,
        "meta_inclination": 97.8125,
        "meta_ra_of_asc_node": 7.1062,
        "meta_arg_of_pericenter": 172.2406,
        "meta_mean_anomaly": 187.8844,
        "meta_ephemeris_type": 0,
        "meta_classification_type": "U",
        "meta_norad_cat_id": 44819,
        "meta_element_set_no": 999,
        "meta_rev_at_epoch": 32864,
        "meta_bstar": 8.5926e-05,
        "meta_mean_motion_dot": 6.1e-06,
        "meta_mean_motion_ddot": 0,
        "tle_line1": "1 44819U 19082A   25361.20494572  .00000610  00000+0  85926-4 0  9996",
        "tle_line2": "2 44819  97.8125   7.1062 0002369 172.2406 187.8844 14.80674342328640"
      },
      "geometry": {
        "type": "Point",
        "coordinates": [
          7.89567628743009,
          -3.832233112447239
        ]
      }
    },
    {
      "type": "Feature",
      "properties": {
        "norad_id": 44873,
        "name": "CSG-1",
        "group": "resource",
        "lat": -6.277185142048886,
        "lon": 1.7037499580057607,
        "alt_km": 626.5209439812479,
        "timestamp": "2025-12-27T11:23:19.535190+00:00",
        "meta_object_name": "CSG-1",
        "meta_object_id": "2019-092A",
        "meta_epoch": "2025-12-27T04:04:13.399392",
        "meta_mean_motion": 14.8216443,
        "meta_eccentricity": 0.0001446,
        "meta_inclination": 97.8805,
        "meta_ra_of_asc_node": 182.2765,
        "meta_arg_of_pericenter": 84.8498,
        "meta_mean_anomaly": 275.288,
        "meta_ephemeris_type": 0,
        "meta_classification_type": "U",
        "meta_norad_cat_id": 44873,
        "meta_element_set_no": 999,
        "meta_rev_at_epoch": 32599,
        "meta_bstar": 0.00010313,
        "meta_mean_motion_dot": 7.69e-06,
        "meta_mean_motion_ddot": 0,
        "tle_line1": "1 44873U 19092A   25361.16959953  .00000769  00000+0  10313-3 0  9993",
        "tle_line2": "2 44873  97.8805 182.2765 0001446  84.8498 275.2880 14.82164430325995"
      },
      "geometry": {
        "type": "Point",
        "coordinates": [
          1.7037499580057607,
          -6.277185142048886
        ]
      }
    }
  ]
}